{"type": "FeatureCollection", "features": [ {"type": "Feature", "properties": {"norad_id": 66911, "name": "1998-067XX", "group": "stations", "lat": -49.47242497546235, "lon": -10.527558757811494, "alt_km": 409.692595605512, "timestamp": "2025-12-20T22:39:09.437682+00:00", "meta": {"OBJECT_NAME": "1998-067XX", "OBJECT_ID": "1998-067XX", "EPOCH": "2025-12-20T12:17:22.048800", "MEAN_MOTION": 15.53037566, "ECCENTRICITY": 0.00038557, "INCLINATION": 51.631, "RA_OF_ASC_NODE": 103.6915, "ARG_OF_PERICENTER": 259.4504, "MEAN_ANOMALY": 100.6051, "EPHEMERIS_TYPE": 0, "CLASSIFICATION_TYPE": "U", "NORAD_CAT_ID": 66911, "ELEMENT_SET_NO": 999, "REV_AT_EPOCH": 281, "BSTAR": 0.00075761816, "MEAN_MOTION_DOT": 0.00048031, "MEAN_MOTION_DDOT": 0}, "tle": {"line1": "1 66911U 98067XX  25354.51206075  .00048031  00000+0  75762-3 0  9993", "line2": "2 66911  51.6310 103.6915 0003855 259.4504 100.6051 15.53037566  2811"}}, "geometry": {"type": "Point", "coordinates": [-10.527558757811494, -49.47242497546235]}}, {"type": "Feature", "properties": {"norad_id": 66912, "name": "1998-067XY", "group": "stations", "lat": -17.88648409686396, "lon": -63.537096211225, "alt_km": 412.71918441563867, "timestamp": "2025-12-20T22:39:09.437691+00:00", "meta": {"OBJECT_NAME": "1998-067XY", "OBJECT_ID": "1998-067XY", "EPOCH": "2025-12-19T14:52:14.043072", "MEAN_MOTION": 15.51780846, "ECCENTRICITY": 0.0004012, "INCLINATION": 51.6307, "RA_OF_ASC_NODE": 108.231, "ARG_OF_PERICENTER": 260.881, "MEAN_ANOMALY": 99.1725, "EPHEMERIS_TYPE": 0, "CLASSIFICATION_TYPE": "U", "NORAD_CAT_ID": 66912, "ELEMENT_SET_NO": 999, "REV_AT_EPOCH": 267, "BSTAR": 0.00063264, "MEAN_MOTION_DOT": 0.00038197, "MEAN_MOTION_DDOT": 0}, "tle": {"line1": "1 66912U 98067XY  25353.61960698  .00038197  00000+0  63264-3 0  9998", "line2": "2 66912  51.6307 108.2310 0004012 260.8810  99.1725 15.51780846  2678"}}, "geometry": {"type": "Point", "coordinates": [-63.537096211225, -17.88648409686396]}}]}